NUSHSAT1                
1 63211U 25052B   26068.64700493  .00023034  00000+0  74857-3 0  9997
2 63211  97.4095 325.7239 0005501  84.7512 275.4357 15.31903202 54882
STARLINK-35394          
1 66023U 25232U   26068.52807082  .00033575  00000+0  11406-2 0  9991
2 66023  53.1578 104.4580 0001270  93.3560 266.7586 15.30199264 23416
